     2.11           N: GPS NAV DATA                         RINEX VERSION / TYPE
teqc  2019Feb25                         20221121 12:23:31UTCPGM / RUN BY / DATE
OSX ker:10.11.6|Core i5|gcc 4.3 -m64|OSX ker:10.10+|=+      COMMENT
    6.5193D-09  2.2352D-08 -5.9605D-08 -1.1921D-07          ION ALPHA
    8.6016D+04  9.8304D+04 -6.5536D+04 -5.2429D+05          ION BETA
    0.000000000000D+00-5.329070518201D-15   233472     1533 DELTA-UTC: A0,A1,T,W
                                                            END OF HEADER
24 09  5 23 23 59 44.0 1.912126317620D-04 2.955857780762D-12 0.000000000000D+00
    1.000000000000D+00 5.550000000000D+01 4.127314776370D-09 2.366388792403D+00
    2.974644303322D-06 6.697775097564D-03 1.276470720768D-05 5.153684646606D+03
    6.047840000000D+05-1.322478055954D-07-2.231138465473D-01 1.676380634308D-08
    9.510634012996D-01 1.283125000000D+02-6.483769799837D-01-7.560314917463D-09
   -6.510985494395D-10 1.000000000000D+00 1.532000000000D+03 0.000000000000D+00
    2.000000000000D+00 0.000000000000D+00-1.396983861923D-09 1.000000000000D+00
    5.982480000000D+05 4.000000000000D+00
13 09  5 23 23 59 44.0 2.978132106364D-04 9.094947017729D-13 0.000000000000D+00
    2.800000000000D+01-8.393750000000D+01 4.049811548049D-09 7.556843178794D-01
   -4.453584551811D-06 4.127562628128D-03 5.755573511124D-07 5.153705251694D+03
    6.047840000000D+05-9.872019290924D-08 1.878361484815D+00 4.470348358154D-08
    9.946293065087D-01 3.827187500000D+02 1.569312409990D+00-8.273916070386D-09
   -1.007184810433D-10 1.000000000000D+00 1.532000000000D+03 0.000000000000D+00
    2.000000000000D+00 0.000000000000D+00-1.117587089539D-08 2.800000000000D+01
    5.976180000000D+05 4.000000000000D+00
23 09  5 23 23 59 28.0 3.901068121195D-04 1.136868377216D-13 0.000000000000D+00
    9.000000000000D+00-7.062500000000D+01 4.634121601194D-09-9.800395425807D-03
   -3.622844815254D-06 6.095871911384D-03 1.247972249985D-07 5.153607120514D+03
    6.047680000000D+05 1.117587089539D-08 1.826395843392D+00-5.774199962616D-08
    9.701282023736D-01 3.785625000000D+02 2.883849144235D+00-8.543927317439D-09
   -2.464388365953D-11 1.000000000000D+00 1.532000000000D+03 0.000000000000D+00
    2.000000000000D+00 0.000000000000D+00-2.002343535423D-08 9.000000000000D+00
    6.016560000000D+05 4.000000000000D+00
